OUTLETID,BUSNAME,ADDR1,CITY,STATE,ZIP,LATITUDE,LONGITUDE
211500128,USPS COLLECTION BOX - BLUE BOX,660 HUNTINGTON AVE,BOSTON,MA,2115,42.335527,-71.1014819
211500131,USPS COLLECTION BOX - BLUE BOX,677 HUNTINGTON AVE,BOSTON,MA,2115,42.334994,-71.1030359
211500223,USPS COLLECTION BOX - BLUE BOX,625 HUNTINGTON AVE,BOSTON,MA,2115,42.336215,-71.0998608
211500132,USPS COLLECTION BOX - BLUE BOX,722 HUNTINGTON AVE,BOSTON,MA,2115,42.33421,-71.1043778
211500137,USPS COLLECTION BOX - BLUE BOX,188 LONGWOOD AVE,BOSTON,MA,2115,42.3365,-71.1019222
211500117,USPS COLLECTION BOX - BLUE BOX,550 HUNTINGTON AVE,BOSTON,MA,2115,42.336781,-71.0955526
211500007,USPS COLLECTION BOX - BLUE BOX,260 LONGWOOD AVE,BOSTON,MA,2115,42.337248,-71.1038845
211500099,USPS COLLECTION BOX - BLUE BOX,300 LONGWOOD AVE,BOSTON,MA,2115,42.337397,-71.1054918
211500133,USPS COLLECTION BOX - BLUE BOX,805 HUNTINGTON AVE,BOSTON,MA,2115,42.333427,-71.1083179
211500109,USPS COLLECTION BOX - BLUE BOX,230 FENWAY,BOSTON,MA,2115,42.338913,-71.096839
211500110,USPS COLLECTION BOX - BLUE BOX,300 FENWAY,BOSTON,MA,2115,42.339504,-71.099827
211500078,USPS COLLECTION BOX - BLUE BOX,20 VINING ST,BOSTON,MA,2115,42.3349547,-71.1084243
211500098,USPS COLLECTION BOX - BLUE BOX,333 LONGWOOD AVE,BOSTON,MA,2115,42.337995,-71.1057927
211500105,USPS COLLECTION BOX - BLUE BOX,44 BINNEY ST,BOSTON,MA,2115,42.337725,-71.1067515
211500113,USPS COLLECTION BOX - BLUE BOX,74 FENWOOD RD,BOSTON,MA,2115,42.335601,-71.1087628
211500134,USPS COLLECTION BOX - BLUE BOX,836 HUNTINGTON AVE,BOSTON,MA,2115,42.333177,-71.1097454
211500226,USPS COLLECTION BOX - BLUE BOX,400 FENWAY,BOSTON,MA,2115,42.340588,-71.1020581
221500004,USPS COLLECTION BOX - BLUE BOX,454 BROOKLINE AVE,BOSTON,MA,2215,42.337434,-71.1088895
221500009,USPS COLLECTION BOX - BLUE BOX,400 BROOKLINE AVE,BOSTON,MA,2215,42.338618,-71.1076742
211500135,USPS COLLECTION BOX - BLUE BOX,50 LEON ST,BOSTON,MA,2115,42.338513,-71.0906889
221500010,USPS COLLECTION BOX - BLUE BOX,330 BROOKLINE AVE,BOSTON,MA,2215,42.340203,-71.1056854
211500114,USPS COLLECTION BOX - BLUE BOX,104 FORSYTH ST,BOSTON,MA,2115,42.338189,-71.0899173
221500055,USPS COLLECTION BOX - BLUE BOX,125 PARK DR,BOSTON,MA,2215,42.34166407,-71.097738
221500058,USPS COLLECTION BOX - BLUE BOX,81 KILMARNOCK ST,BOSTON,MA,2215,42.342304,-71.0993196
221500039,USPS COLLECTION BOX - BLUE BOX,102 PILGRIM RD,BOSTON,MA,2215,42.341064,-71.1066449
221500057,USPS COLLECTION BOX - BLUE BOX,124 JERSEY ST,BOSTON,MA,2215,42.34262622,-71.09683345
221500037,USPS COLLECTION BOX - BLUE BOX,395 LONGWOOD AVE,BOSTON,MA,2215,42.34005,-71.1089769
221500056,USPS COLLECTION BOX - BLUE BOX,133 PETERBOROUGH ST,BOSTON,MA,2215,42.34294496,-71.1002793
211500116,USPS COLLECTION BOX - BLUE BOX,175 HEMENWAY ST,BOSTON,MA,2115,42.341,-71.0911927
221500066,USPS COLLECTION BOX - BLUE BOX,100 RIVERWAY,BOSTON,MA,2215,42.34278,-71.1034299
221500038,USPS COLLECTION BOX - BLUE BOX,37 PILGRIM RD,BOSTON,MA,2215,42.34246,-71.1050647
211500160,USPS COLLECTION BOX - BLUE BOX,84 THE FENWAY,BOSTON,MA,2115,42.342247,-71.091427
221500059,USPS COLLECTION BOX - BLUE BOX,401 PARK DR,BOSTON,MA,2215,42.34389514,-71.1032421
221500062,USPS COLLECTION BOX - BLUE BOX,16 PETERBOROUGH ST,BOSTON,MA,2215,42.34407604,-71.09586411
221500065,USPS COLLECTION BOX - BLUE BOX,1295 BOYLSTON ST,BOSTON,MA,2215,42.34464507,-71.09755926
211500159,USPS COLLECTION BOX - BLUE BOX,87 SAINT STEPHEN ST,BOSTON,MA,2115,42.341551,-71.0884277
221500092,USPS COLLECTION BOX - BLUE BOX,1280 BOYLSTON ST,BOSTON,MA,2215,42.34471275,-71.09686859
211500115,USPS COLLECTION BOX - BLUE BOX,115 GAINSBOROUGH ST,BOSTON,MA,2115,42.34256,-71.0899331
221500047,USPS COLLECTION BOX - BLUE BOX,126 BROOKLINE AVE,BOSTON,MA,2215,42.34544029,-71.10034193
211500122,USPS COLLECTION BOX - BLUE BOX,290 HUNTINGTON AVE,BOSTON,MA,2115,42.341305,-71.086758
221500060,USPS COLLECTION BOX - BLUE BOX,1247 BOYLSTON ST,BOSTON,MA,2215,42.34530927,-71.09528361
221500040,USPS COLLECTION BOX - BLUE BOX,109 BROOKLINE AVE,BOSTON,MA,2215,42.34588551,-71.09995543
211500121,USPS COLLECTION BOX - BLUE BOX,289 HUNTINGTON AVE,BOSTON,MA,2115,42.341632,-71.086439
221500030,USPS COLLECTION BOX - BLUE BOX,452 PARK DR,BOSTON,MA,2215,42.345627,-71.1047177
211500238,USPS COLLECTION BOX - BLUE BOX,52 WESTLAND AVE,BOSTON,MA,2115,42.343748,-71.0882352
221500053,USPS COLLECTION BOX - BLUE BOX,1179 BOYLSTON ST,BOSTON,MA,2215,42.34629014,-71.09361265
221500011,USPS COLLECTION BOX - BLUE BOX,38 FENWAY,BOSTON,MA,2215,42.34536112,-71.09058617
221500064,USPS COLLECTION BOX - BLUE BOX,82 BROOKLINE AVE,BOSTON,MA,2215,42.34706691,-71.09856804
221500164,USPS COLLECTION BOX - BLUE BOX,880 BEACON ST,BOSTON,MA,2215,42.34663954,-71.10562139
211500152,USPS COLLECTION BOX - BLUE BOX,301 MASSACHUSETTS AVE,BOSTON,MA,2115,42.343318,-71.0860449
221500028,USPS COLLECTION BOX - BLUE BOX,829 BEACON ST,BOSTON,MA,2215,42.34726903,-71.1026749
221500061,USPS COLLECTION BOX - BLUE BOX,1 LANSDOWNE ST,BOSTON,MA,2215,42.34719046,-71.094492
211500120,USPS COLLECTION BOX - BLUE BOX,236 HUNTINGTON AVE,BOSTON,MA,2115,42.343106,-71.0844581
221500025,USPS COLLECTION BOX - BLUE BOX,700 BEACON ST,BOSTON,MA,2215,42.34827682,-71.09922818
221500029,USPS COLLECTION BOX - BLUE BOX,506 PARK DR,BOSTON,MA,2215,42.347565,-71.1057352
221500069,USPS COLLECTION BOX - BLUE BOX,677 BEACON ST,BOSTON,MA,2215,42.34835919,-71.0987523
211500145,USPS COLLECTION BOX - BLUE BOX,207 MASSACHUSETTS AVE,BOSTON,MA,2115,42.344915,-71.0864448
221500013,USPS COLLECTION BOX - BLUE BOX,1126 BOYLSTON ST,BOSTON,MA,2215,42.3469065,-71.08888456
211500151,USPS COLLECTION BOX - BLUE BOX,161 MASSACHUSETTS AVE,BOSTON,MA,2115,42.346351,-71.0872306
221500082,USPS COLLECTION BOX - BLUE BOX,466 COMMONWEALTH AVE,BOSTON,MA,2215,42.34878751,-71.093322
221500014,USPS COLLECTION BOX - BLUE BOX,609 COMMONWEALTH AVE,BOSTON,MA,2215,42.34946936,-71.10100952
211500119,USPS COLLECTION BOX - BLUE BOX,220 HUNTINGTON AVE,BOSTON,MA,2115,42.344204,-71.083011
221500026,USPS COLLECTION BOX - BLUE BOX,700 COMMONWEALTH AVE,BOSTON,MA,2215,42.34958762,-71.10396642
211500106,USPS COLLECTION BOX - BLUE BOX,1044 BOYLSTON ST,BOSTON,MA,2115,42.34730266,-71.08733908
221500042,USPS COLLECTION BOX - BLUE BOX,400 COMMONWEALTH AVE,BOSTON,MA,2215,42.34882051,-71.090721
221500068,USPS COLLECTION BOX - BLUE BOX,59 BAY STATE RD,BOSTON,MA,2215,42.349969,-71.0954809
211500142,USPS COLLECTION BOX - BLUE BOX,100 MASSACHUSETTS AVE,BOSTON,MA,2115,42.3482206,-71.08817944
221500015,USPS COLLECTION BOX - BLUE BOX,409 COMMONWEALTH AVE,BOSTON,MA,2215,42.34922045,-71.09098103
211500104,USPS COLLECTION BOX - BLUE BOX,40 DALTON ST,BOSTON,MA,2115,42.346831,-71.0850463
221500067,USPS COLLECTION BOX - BLUE BOX,199 BAY STATE RD,BOSTON,MA,2215,42.350544,-71.1024181
211500141,USPS COLLECTION BOX - BLUE BOX,86 MASSACHUSETTS AVE,BOSTON,MA,2115,42.34865315,-71.08837215
221500091,USPS COLLECTION BOX - BLUE BOX,725 COMMONWEALTH AVE,BOSTON,MA,2215,42.350089,-71.106083
221500070,USPS COLLECTION BOX - BLUE BOX,225 BAY STATE RD,BOSTON,MA,2215,42.35055,-71.1034424
221500019,USPS COLLECTION BOX - BLUE BOX,728 COMMONWEALTH AVE,BOSTON,MA,2215,42.349926,-71.1069147
211500140,USPS COLLECTION BOX - BLUE BOX,60 MASSACHUSETTS AVE,BOSTON,MA,2115,42.34949846,-71.08879317
211600132,USPS COLLECTION BOX - BLUE BOX,120 HUNTINGTON AVE,BOSTON,MA,2116,42.34570914,-71.08136444
221500052,USPS COLLECTION BOX - BLUE BOX,526 BEACON ST,BOSTON,MA,2215,42.35052188,-71.09077068
211500139,USPS COLLECTION BOX - BLUE BOX,44 MASSACHUSETTS AVE,BOSTON,MA,2115,42.350046,-71.0889531
211500154,USPS COLLECTION BOX - BLUE BOX,300 NEWBURY ST,BOSTON,MA,2115,42.34890201,-71.08498515
211500138,USPS COLLECTION BOX - BLUE BOX,21 MASSACHUSETTS AVE,BOSTON,MA,2115,42.35076,-71.0894543
211600120,USPS COLLECTION BOX - BLUE BOX,465 COLUMBUS AVE,BOSTON,MA,2116,42.343793,-71.0780067
211500107,USPS COLLECTION BOX - BLUE BOX,311 COMMONWEALTH AVE,BOSTON,MA,2115,42.34989002,-71.08637793
211500108,USPS COLLECTION BOX - BLUE BOX,308 COMMONWEALTH AVE,BOSTON,MA,2115,42.34966208,-71.08570251
211600036,USPS COLLECTION BOX - BLUE BOX,885 BOYLSTON ST,BOSTON,MA,2116,42.348627,-71.08362
211600166,USPS COLLECTION BOX - BLUE BOX,8 GARRISON ST,BOSTON,MA,2116,42.34605288,-71.07978459
220500002,USPS COLLECTION BOX - BLUE BOX,25 DORCHESTER AVE,BOSTON,MA,2205,42.350749,-71.0534255
220500010,USPS COLLECTION BOX - BLUE BOX,25 DORCHESTER AVE,BOSTON,MA,2205,42.35075,-71.0534392
220500001,USPS COLLECTION BOX - BLUE BOX,25 DORCHESTER AVE,BOSTON,MA,2205,42.350753,-71.0534536
220500006,USPS COLLECTION BOX - BLUE BOX,25 DORCHESTER AVE,BOSTON,MA,2205,42.35053,-71.0536221
220500014,USPS COLLECTION BOX - APC,25 DORCHESTER AVE,BOSTON,MA,2205,42.35042572,-71.05355675
220500016,USPS COLLECTION BOX - APC,25 DORCHESTER AVE,BOSTON,MA,2205,42.35042572,-71.05355675
220500032,USPS COLLECTION BOX - PO LOBBY,25 DORCHESTER AVE,BOSTON,MA,2205,42.35042572,-71.05355675
220500013,USPS COLLECTION BOX - BLUE BOX,25 DORCHESTER AVE REAR,BOSTON,MA,2205,42.351112,-71.0546296
221000021,USPS COLLECTION BOX - BLUE BOX,263 SUMMER ST,BOSTON,MA,2210,42.3505,-71.0506977
221000008,USPS COLLECTION BOX - BLUE BOX,268 SUMMER ST,BOSTON,MA,2210,42.350296,-71.0504509
221000006,USPS COLLECTION BOX - BLUE BOX,268 SUMMER ST,BOSTON,MA,2210,42.350261,-71.0504228
221000052,USPS COLLECTION BOX - BLUE BOX,1 SOUTH STA,BOSTON,MA,2210,42.352518,-71.0553206
221000017,USPS COLLECTION BOX - BLUE BOX,1 SOUTH STA,BOSTON,MA,2210,42.352516,-71.0553307
221000025,USPS COLLECTION BOX - BLUE BOX,330 CONGRESS ST,BOSTON,MA,2210,42.35097,-71.0496519
221000051,USPS COLLECTION BOX - BLUE BOX,280 SUMMER ST,BOSTON,MA,2210,42.349991,-71.0498641
221000023,USPS COLLECTION BOX - BLUE BOX,330 CONGRESS ST,BOSTON,MA,2210,42.350998,-71.0495833
211000074,USPS COLLECTION BOX - BLUE BOX,175 FEDERAL ST,BOSTON,MA,2110,42.353321,-71.056042
211100041,USPS COLLECTION BOX - BLUE BOX,138 SOUTH ST,BOSTON,MA,2111,42.350682,-71.0575019
211100015,USPS COLLECTION BOX - BLUE BOX,138 SOUTH ST,BOSTON,MA,2111,42.350678,-71.0575031
221000028,USPS COLLECTION BOX - BLUE BOX,319 A ST,BOSTON,MA,2210,42.349119,-71.0494459
211100014,USPS COLLECTION BOX - BLUE BOX,89 SOUTH ST,BOSTON,MA,2111,42.351768,-71.057466
211100016,USPS COLLECTION BOX - BLUE BOX,89 SOUTH ST,BOSTON,MA,2111,42.351768,-71.057466
221000024,USPS COLLECTION BOX - BLUE BOX,368 CONGRESS ST,BOSTON,MA,2210,42.350516,-71.0487208
211100005,USPS COLLECTION BOX - BLUE BOX,183 ESSEX ST,BOSTON,MA,2111,42.35215348,-71.05750861
211000033,USPS COLLECTION BOX - BLUE BOX,125 SUMMER ST,BOSTON,MA,2110,42.353271,-71.057132
221000020,USPS COLLECTION BOX - BLUE BOX,321 SUMMER ST,BOSTON,MA,2210,42.34951,-71.0484123
211000035,USPS COLLECTION BOX - BLUE BOX,125 SUMMER ST,BOSTON,MA,2110,42.35332123,-71.05736189
211000151,USPS COLLECTION BOX - BLUE BOX,211 CONGRESS ST,BOSTON,MA,2110,42.354765,-71.054811
211100050,USPS COLLECTION BOX - BLUE BOX,183 ESSEX ST,BOSTON,MA,2111,42.352539,-71.0580086
221000018,USPS COLLECTION BOX - BLUE BOX,249 A ST,BOSTON,MA,2210,42.347021,-71.0511274
211100053,USPS COLLECTION BOX - BLUE BOX,179 LINCOLN ST,BOSTON,MA,2111,42.350669,-71.0587699
211100052,USPS COLLECTION BOX - BLUE BOX,179 LINCOLN ST,BOSTON,MA,2111,42.35040971,-71.0587592
211000008,USPS COLLECTION BOX - BLUE BOX,126 HIGH ST,BOSTON,MA,2110,42.355267,-71.053894
211100054,USPS COLLECTION BOX - BLUE BOX,179 LINCOLN ST,BOSTON,MA,2111,42.350273,-71.058824
211000175,USPS COLLECTION BOX - BLUE BOX,408 ATLANTIC AVE,BOSTON,MA,2110,42.355023,-71.0509876
211100037,USPS COLLECTION BOX - BLUE BOX,210 LINCOLN ST,BOSTON,MA,2111,42.35009,-71.0589104
211100004,USPS COLLECTION BOX - BLUE BOX,210 LINCOLN ST,BOSTON,MA,2111,42.350111,-71.0589409
211000124,USPS COLLECTION BOX - BLUE BOX,101 FEDERAL ST,BOSTON,MA,2110,42.354927,-71.056593
211000065,USPS COLLECTION BOX - BLUE BOX,10 WINTHROP SQ,BOSTON,MA,2110,42.354543,-71.0574944
211100011,USPS COLLECTION BOX - BLUE BOX,88 KINGSTON ST,BOSTON,MA,2111,42.352597,-71.0596178
211000028,USPS COLLECTION BOX - BLUE BOX,99 ATLANTIC AVE,BOSTON,MA,2110,42.355917,-71.0507307
211000021,USPS COLLECTION BOX - BLUE BOX,185 FRANKLIN ST,BOSTON,MA,2110,42.356118,-71.0550091
211100017,USPS COLLECTION BOX - BLUE BOX,61 BEACH ST,BOSTON,MA,2111,42.351308,-71.0604014
211100048,USPS COLLECTION BOX - BLUE BOX,75 KNEELAND ST,BOSTON,MA,2111,42.350407,-71.0604983
211000072,USPS COLLECTION BOX - BLUE BOX,70 FRANKLIN ST,BOSTON,MA,2110,42.355358,-71.0584538
211000040,USPS COLLECTION BOX - BLUE BOX,46 SUMMER ST,BOSTON,MA,2110,42.354564,-71.0594062
211100010,USPS COLLECTION BOX - BLUE BOX,38 CHAUNCY ST,BOSTON,MA,2111,42.353775,-71.0602335
211100008,USPS COLLECTION BOX - BLUE BOX,50 ESSEX ST,BOSTON,MA,2111,42.352615,-71.0610209
211100031,USPS COLLECTION BOX - BLUE BOX,68 HARRISON AVE,BOSTON,MA,2111,42.351188,-71.061329
211000117,USPS COLLECTION BOX - BLUE BOX,53 SUMMER ST,BOSTON,MA,2110,42.354855,-71.0595403
211100056,USPS COLLECTION BOX - BLUE BOX,125 HARRISON AVE,BOSTON,MA,2111,42.350542,-71.0614149
210900092,USPS COLLECTION BOX - BLUE BOX,79 MILK ST,BOSTON,MA,2109,42.356769,-71.056492
211000007,USPS COLLECTION BOX - BLUE BOX,57 FRANKLIN ST,BOSTON,MA,2110,42.355847,-71.0584456
210900091,USPS COLLECTION BOX - BLUE BOX,79 MILK ST,BOSTON,MA,2109,42.356715,-71.0568209
211000070,USPS COLLECTION BOX - BLUE BOX,88 BROAD ST,BOSTON,MA,2110,42.357535,-71.0527936
221000110,USPS COLLECTION BOX - BLUE BOX,1 MARINA PARK DR,BOSTON,MA,2210,42.35309,-71.044986
210900013,USPS COLLECTION BOX - BLUE BOX,1 FEDERAL ST,BOSTON,MA,2109,42.356733,-71.0573629
210900157,USPS COLLECTION BOX - BLUE BOX,10 POST OFFICE SQ,BOSTON,MA,2109,42.35721727,-71.05597972
211100021,USPS COLLECTION BOX - BLUE BOX,136 HARRISON AVE,BOSTON,MA,2111,42.349725,-71.0618851
210900188,USPS COLLECTION BOX - PO LOBBY,31 MILK ST,BOSTON,MA,2109,42.35671251,-71.05794312
210900168,USPS COLLECTION BOX - APC,31 MILK ST,BOSTON,MA,2109,42.35676,-71.0581092
211100020,USPS COLLECTION BOX - BLUE BOX,171 HARRISON AVE,BOSTON,MA,2111,42.349154,-71.061976
211100009,USPS COLLECTION BOX - BLUE BOX,600 WASHINGTON ST,BOSTON,MA,2111,42.35284899,-71.06223101
210900017,USPS COLLECTION BOX - BLUE BOX,40 BROAD ST,BOSTON,MA,2109,42.358187,-71.0538646
210900016,USPS COLLECTION BOX - BLUE BOX,33 BROAD ST,BOSTON,MA,2109,42.35828,-71.0543513
211100057,USPS COLLECTION BOX - BLUE BOX,60 TEMPLE PL,BOSTON,MA,2111,42.35509898,-71.06139098
211100059,USPS COLLECTION BOX - BLUE BOX,199 HARRISON AVE,BOSTON,MA,2111,42.348133,-71.0624125
210900080,USPS COLLECTION BOX - BLUE BOX,177 MILK ST,BOSTON,MA,2109,42.358654,-71.0526523
210900057,USPS COLLECTION BOX - BLUE BOX,1 INDIA ST,BOSTON,MA,2109,42.358969,-71.0536024
210900005,USPS COLLECTION BOX - BLUE BOX,1 INDIA ST,BOSTON,MA,2109,42.358977,-71.054235
211000023,USPS COLLECTION BOX - BLUE BOX,260 ATLANTIC AVE,BOSTON,MA,2110,42.358971,-71.0512824
211600222,USPS COLLECTION BOX - BLUE BOX,45 STUART ST,BOSTON,MA,2116,42.350947,-71.0639393
221000087,USPS COLLECTION BOX - BLUE BOX,155 SEAPORT BLVD,BOSTON,MA,2210,42.35025277,-71.04237504
210900010,USPS COLLECTION BOX - BLUE BOX,120 STATE ST,BOSTON,MA,2109,42.359181,-71.0544561
210900101,USPS COLLECTION BOX - BLUE BOX,84 STATE ST,BOSTON,MA,2109,42.35904613,-71.05569425
210800107,USPS COLLECTION BOX - BLUE BOX,15 COURT SQ,BOSTON,MA,2108,42.358257,-71.058672
211100019,USPS COLLECTION BOX - BLUE BOX,150 TREMONT ST,BOSTON,MA,2111,42.354807,-71.06310198
211100049,USPS COLLECTION BOX - BLUE BOX,150 TREMONT ST,BOSTON,MA,2111,42.354807,-71.06310198
211100026,USPS COLLECTION BOX - BLUE BOX,177 TREMONT ST,BOSTON,MA,2111,42.35299898,-71.064056
221000003,USPS COLLECTION BOX - BLUE BOX,425 SUMMER ST,BOSTON,MA,2210,42.346686,-71.0432757
210900006,USPS COLLECTION BOX - BLUE BOX,2 CHATHAM ST,BOSTON,MA,2109,42.359707,-71.0544984
211600224,USPS COLLECTION BOX - BLUE BOX,5 OAK ST W,BOSTON,MA,2116,42.348361,-71.0642753
210800009,USPS COLLECTION BOX - BLUE BOX,26 COURT ST,BOSTON,MA,2108,42.358626,-71.0590095
210800091,USPS COLLECTION BOX - BLUE BOX,26 COURT ST,BOSTON,MA,2108,42.358626,-71.0590095
210900040,USPS COLLECTION BOX - BLUE BOX,255 STATE ST,BOSTON,MA,2109,42.359881,-71.0512037
211600042,USPS COLLECTION BOX - BLUE BOX,80 BOYLSTON ST,BOSTON,MA,2116,42.35223401,-71.06491004
211600196,USPS COLLECTION BOX - BLUE BOX,256 TREMONT ST,BOSTON,MA,2116,42.350555,-71.0651941
221000088,USPS COLLECTION BOX - BLUE BOX,2 SEAPORT LN,BOSTON,MA,2210,42.34904389,-71.04114626
211600128,USPS COLLECTION BOX - BLUE BOX,330 TREMONT ST,BOSTON,MA,2116,42.348644,-71.0658405
210800034,USPS COLLECTION BOX - BLUE BOX,10 PEMBERTON SQ,BOSTON,MA,2108,42.35868212,-71.06144248
210900069,USPS COLLECTION BOX - BLUE BOX,24 NORTH ST,BOSTON,MA,2109,42.361047,-71.056143
211400158,USPS COLLECTION BOX - BLUE BOX,50 UNION ST,BOSTON,MA,2114,42.360948,-71.057142
210800100,USPS COLLECTION BOX - BLUE BOX,55 UNION ST,BOSTON,MA,2108,42.36141699,-71.05707206
221000058,USPS COLLECTION BOX - BLUE BOX,2 FISH PIER,BOSTON,MA,2210,42.350474,-71.0385019
211000036,USPS COLLECTION BOX - BLUE BOX,84 ATLANTIC AVE,BOSTON,MA,2110,42.362116,-71.050949
221000027,USPS COLLECTION BOX - BLUE BOX,233 NORTHERN AVE,BOSTON,MA,2210,42.348623,-71.0383659
210800015,USPS COLLECTION BOX - BLUE BOX,18 MOUNT VERNON ST,BOSTON,MA,2108,42.35826938,-71.06498612
211600203,USPS COLLECTION BOX - BLUE BOX,51 CHURCH ST,BOSTON,MA,2116,42.349803,-71.0684583
211600134,USPS COLLECTION BOX - BLUE BOX,51 CHURCH ST,BOSTON,MA,2116,42.349762,-71.0684603
211300005,USPS COLLECTION BOX - EXPRESS,217 HANOVER ST,BOSTON,MA,2113,42.36279279,-71.05539655
211300006,USPS COLLECTION BOX - BLUE BOX,217 HANOVER ST,BOSTON,MA,2113,42.36279279,-71.05539655
210900047,USPS COLLECTION BOX - BLUE BOX,274 NORTH ST,BOSTON,MA,2109,42.363009,-71.0541441
210900038,USPS COLLECTION BOX - BLUE BOX,190 COMMERCIAL ST,BOSTON,MA,2109,42.362995,-71.0516599
211400057,USPS COLLECTION BOX - BLUE BOX,41 TEMPLE ST,BOSTON,MA,2114,42.359994,-71.0638245
211600044,USPS COLLECTION BOX - BLUE BOX,250 BOYLSTON ST,BOSTON,MA,2116,42.351945,-71.06925203
210800019,USPS COLLECTION BOX - BLUE BOX,40 MOUNT VERNON ST,BOSTON,MA,2108,42.35820863,-71.06631037
211600126,USPS COLLECTION BOX - BLUE BOX,138 ARLINGTON ST,BOSTON,MA,2116,42.348689,-71.0693763
210900041,USPS COLLECTION BOX - BLUE BOX,240 COMMERCIAL ST,BOSTON,MA,2109,42.363713,-71.0511341
211000037,USPS COLLECTION BOX - BLUE BOX,32 ATLANTIC AVE,BOSTON,MA,2110,42.363783,-71.050918
211400063,USPS COLLECTION BOX - BLUE BOX,25 NEW CHARDON ST,BOSTON,MA,2114,42.362118,-71.061741
211400076,USPS COLLECTION BOX - EXPRESS,25 NEW CHARDON ST,BOSTON,MA,2114,42.362118,-71.061741
211600168,USPS COLLECTION BOX - BLUE BOX,440 TREMONT ST,BOSTON,MA,2116,42.346513,-71.0691384
211400059,USPS COLLECTION BOX - BLUE BOX,45 MYRTLE ST,BOSTON,MA,2114,42.359535,-71.06616
211600122,USPS COLLECTION BOX - BLUE BOX,310 STUART ST,BOSTON,MA,2116,42.34995756,-71.07033114
211400139,USPS COLLECTION BOX - BLUE BOX,24 NEW CHARDON ST,BOSTON,MA,2114,42.36252077,-71.06170532
211300004,USPS COLLECTION BOX - BLUE BOX,31 PARMENTER ST,BOSTON,MA,2113,42.364179,-71.0553825
211600017,USPS COLLECTION BOX - BLUE BOX,6 SAINT JAMES AVE,BOSTON,MA,2116,42.35094143,-71.07059454
211300008,USPS COLLECTION BOX - BLUE BOX,99 ENDICOTT ST,BOSTON,MA,2113,42.36427434,-71.05727425
211400074,USPS COLLECTION BOX - BLUE BOX,48 CANAL ST,BOSTON,MA,2114,42.36382408,-71.05939582
211400019,USPS COLLECTION BOX - BLUE BOX,65 ANDERSON ST,BOSTON,MA,2114,42.35901352,-71.0677184
221000053,USPS COLLECTION BOX - BLUE BOX,12 CHANNEL ST,BOSTON,MA,2210,42.345095,-71.0367886
211600198,USPS COLLECTION BOX - BLUE BOX,344 BOYLSTON ST,BOSTON,MA,2116,42.35172948,-71.07116376
211600160,USPS COLLECTION BOX - BLUE BOX,200 COLUMBUS AVE,BOSTON,MA,2116,42.348825,-71.0714159
211600158,USPS COLLECTION BOX - BLUE BOX,40 BERKELEY ST,BOSTON,MA,2116,42.346147,-71.0705454
211600057,USPS COLLECTION BOX - BLUE BOX,9 NEWBURY ST,BOSTON,MA,2116,42.35253902,-71.07157772
211600124,USPS COLLECTION BOX - BLUE BOX,95 BERKELEY ST,BOSTON,MA,2116,42.347027,-71.0710377
211400073,USPS COLLECTION BOX - BLUE BOX,104 CANAL ST,BOSTON,MA,2114,42.364305,-71.0602155
211600059,USPS COLLECTION BOX - BLUE BOX,146 BERKELEY ST,BOSTON,MA,2116,42.348753,-71.0717563
211600190,USPS COLLECTION BOX - BLUE BOX,10 NEWBURY ST,BOSTON,MA,2116,42.352373,-71.0720029
211600076,USPS COLLECTION BOX - BLUE BOX,399 BOYLSTON ST,BOSTON,MA,2116,42.351795,-71.072091
211400021,USPS COLLECTION BOX - BLUE BOX,240 CAMBRIDGE ST,BOSTON,MA,2114,42.360993,-71.0668575
211400066,USPS COLLECTION BOX - BLUE BOX,77 N WASHINGTON ST,BOSTON,MA,2114,42.365007,-71.058015
211400072,USPS COLLECTION BOX - BLUE BOX,50 STANIFORD ST,BOSTON,MA,2114,42.362595,-71.064531
211400136,USPS COLLECTION BOX - BLUE BOX,59 CHARLES ST,BOSTON,MA,2114,42.357726,-71.070093
211400009,USPS COLLECTION BOX - BLUE BOX,60 CARDINAL OCONNELL WAY,BOSTON,MA,2114,42.36258653,-71.06516574
211400080,USPS COLLECTION BOX - BLUE BOX,1 YAWKEY WAY,BOSTON,MA,2114,42.36268,-71.06512
211400017,USPS COLLECTION BOX - BLUE BOX,41 PHILLIPS ST,BOSTON,MA,2114,42.360498,-71.068131
211300002,USPS COLLECTION BOX - BLUE BOX,97 PRINCE ST,BOSTON,MA,2113,42.36573055,-71.05630194
210900187,USPS COLLECTION BOX - BLUE BOX,343 COMMERCIAL ST,BOSTON,MA,2109,42.36591137,-71.05112756
211600208,USPS COLLECTION BOX - BLUE BOX,8 ARLINGTON ST,BOSTON,MA,2116,42.354432,-71.0722485
221000099,USPS COLLECTION BOX - EXPRESS,2 HARBOR ST,BOSTON,MA,2210,42.345012,-71.0350777
211400018,USPS COLLECTION BOX - BLUE BOX,40 WEST CEDAR ST,BOSTON,MA,2114,42.35873481,-71.06995861
211300001,USPS COLLECTION BOX - BLUE BOX,160 SALEM ST,BOSTON,MA,2113,42.365943,-71.0552025
211300007,USPS COLLECTION BOX - BLUE BOX,396 HANOVER ST,BOSTON,MA,2113,42.366033,-71.0529615
211600029,USPS COLLECTION BOX - BLUE BOX,443 BOYLSTON ST,BOSTON,MA,2116,42.35157,-71.0730225
211600191,USPS COLLECTION BOX - BLUE BOX,38 NEWBURY ST,BOSTON,MA,2116,42.35211103,-71.07299307
211400070,USPS COLLECTION BOX - BLUE BOX,151 MERRIMAC ST,BOSTON,MA,2114,42.364278,-71.063082
211600056,USPS COLLECTION BOX - BLUE BOX,45 NEWBURY ST,BOSTON,MA,2116,42.35211901,-71.07314695
211400036,USPS COLLECTION BOX - BLUE BOX,125 CAUSEWAY ST,BOSTON,MA,2114,42.365196,-71.061183
211600080,USPS COLLECTION BOX - BLUE BOX,42 COMMONWEALTH AVE,BOSTON,MA,2116,42.352982,-71.0733418
211600228,USPS COLLECTION BOX - BLUE BOX,551 TREMONT ST,BOSTON,MA,2116,42.344242,-71.0717221
211700006,USPS COLLECTION BOX - APC,133 CLARENDON ST,BOSTON,MA,2117,42.348383,-71.0734033
211400044,USPS COLLECTION BOX - BLUE BOX,275 CAMBRIDGE ST,BOSTON,MA,2114,42.361641,-71.0681895
211400004,USPS COLLECTION BOX - BLUE BOX,108 CHARLES ST,BOSTON,MA,2114,42.358905,-71.070903
211600159,USPS COLLECTION BOX - BLUE BOX,73 WARREN AVE,BOSTON,MA,2116,42.344832,-71.0724899
211400029,USPS COLLECTION BOX - BLUE BOX,251 CAUSEWAY ST,BOSTON,MA,2114,42.366393,-71.0589105
211600123,USPS COLLECTION BOX - BLUE BOX,76 APPLETON ST,BOSTON,MA,2116,42.345635,-71.0729608
211600157,USPS COLLECTION BOX - BLUE BOX,160 CLARENDON ST,BOSTON,MA,2116,42.347702,-71.0737422
211400003,USPS COLLECTION BOX - BLUE BOX,136 CHARLES ST,BOSTON,MA,2114,42.35970124,-71.07079334
211400005,USPS COLLECTION BOX - EXPRESS,136 CHARLES ST,BOSTON,MA,2114,42.35970124,-71.07079334
211700007,USPS COLLECTION BOX - BLUE BOX,133 CLARENDON ST,BOSTON,MA,2117,42.348394,-71.0739961
221000015,USPS COLLECTION BOX - BLUE BOX,1 DESIGN CENTER PL,BOSTON,MA,2210,42.344615,-71.0336954
221000014,USPS COLLECTION BOX - BLUE BOX,1 DESIGN CENTER PL,BOSTON,MA,2210,42.344616,-71.0336919
211300010,USPS COLLECTION BOX - BLUE BOX,217 ENDICOTT ST,BOSTON,MA,2113,42.36668011,-71.05817562
211600105,USPS COLLECTION BOX - BLUE BOX,29 COMMONWEALTH AVE,BOSTON,MA,2116,42.353204,-71.0741507
210800064,USPS COLLECTION BOX - BLUE BOX,1 BRIMMER ST,BOSTON,MA,2108,42.3587217,-71.0717793
210900050,USPS COLLECTION BOX - BLUE BOX,436 COMMERCIAL ST,BOSTON,MA,2109,42.367293,-71.0526945
211400143,USPS COLLECTION BOX - BLUE BOX,161 CHARLES ST,BOSTON,MA,2114,42.360777,-71.070282
211400014,USPS COLLECTION BOX - BLUE BOX,75 BLOSSOM CT,BOSTON,MA,2114,42.364341,-71.0666685
211600153,USPS COLLECTION BOX - BLUE BOX,136 BEACON ST,BOSTON,MA,2116,42.35481393,-71.07490045
211600047,USPS COLLECTION BOX - BLUE BOX,185 DARTMOUTH ST,BOSTON,MA,2116,42.34848317,-71.07647996
211600010,USPS COLLECTION BOX - BLUE BOX,535 BOYLSTON ST,BOSTON,MA,2116,42.35087501,-71.07557701
211600108,USPS COLLECTION BOX - BLUE BOX,145 DARTMOUTH ST,BOSTON,MA,2116,42.347194,-71.07589733
211600081,USPS COLLECTION BOX - BLUE BOX,110 NEWBURY ST,BOSTON,MA,2116,42.35134311,-71.07583534
211600012,USPS COLLECTION BOX - BLUE BOX,607 BOYLSTON ST,BOSTON,MA,2116,42.350427,-71.077239
211600156,USPS COLLECTION BOX - BLUE BOX,329 COLUMBUS AVE,BOSTON,MA,2116,42.346136,-71.074942
211600054,USPS COLLECTION BOX - BLUE BOX,147 NEWBURY ST,BOSTON,MA,2116,42.35094391,-71.0774506
211600135,USPS COLLECTION BOX - BLUE BOX,90 COMMONWEALTH AVE,BOSTON,MA,2116,42.352283,-71.0758833
211600341,USPS COLLECTION BOX - BLUE BOX,47 HUNTINGTON AVE,BOSTON,MA,2116,42.34824207,-71.07842358
211600034,USPS COLLECTION BOX - BLUE BOX,667 BOYLSTON ST,BOSTON,MA,2116,42.34974398,-71.07868581
211600173,USPS COLLECTION BOX - BLUE BOX,65 COMMONWEALTH AVE,BOSTON,MA,2116,42.352758,-71.0760611
211600138,USPS COLLECTION BOX - BLUE BOX,173 NEWBURY ST,BOSTON,MA,2116,42.350538,-71.0790662
211600201,USPS COLLECTION BOX - BLUE BOX,711 BOYLSTON ST,BOSTON,MA,2116,42.34943896,-71.07980835
211600206,USPS COLLECTION BOX - BLUE BOX,306 DARTMOUTH ST,BOSTON,MA,2116,42.352234,-71.0785044
211600179,USPS COLLECTION BOX - BLUE BOX,192 COMMONWEALTH AVE,BOSTON,MA,2116,42.35112,-71.0801422
211600139,USPS COLLECTION BOX - BLUE BOX,208 NEWBURY ST,BOSTON,MA,2116,42.350066,-71.0806835
211600111,USPS COLLECTION BOX - BLUE BOX,182 BEACON ST,BOSTON,MA,2116,42.354194,-71.0770443
211600350,USPS COLLECTION BOX - BLUE BOX,797 BOYLSTON ST,BOSTON,MA,2116,42.349221,-71.081712
211600117,USPS COLLECTION BOX - BLUE BOX,236 BEACON ST,BOSTON,MA,2116,42.35358,-71.0792676
211600058,USPS COLLECTION BOX - BLUE BOX,235 NEWBURY ST,BOSTON,MA,2116,42.349779,-71.0820144
211600051,USPS COLLECTION BOX - BLUE BOX,11 EXETER ST,BOSTON,MA,2116,42.352321,-71.0809889
211600112,USPS COLLECTION BOX - BLUE BOX,1 EXETER ST,BOSTON,MA,2116,42.35312,-71.0811193
211600180,USPS COLLECTION BOX - BLUE BOX,250 COMMONWEALTH AVE,BOSTON,MA,2116,42.350367,-71.0828946
211600340,USPS COLLECTION BOX - BLUE BOX,279 NEWBURY ST,BOSTON,MA,2116,42.349277,-71.0839059
211600113,USPS COLLECTION BOX - BLUE BOX,336 BEACON ST,BOSTON,MA,2116,42.35240093,-71.08376826
211600182,USPS COLLECTION BOX - BLUE BOX,273 COMMONWEALTH AVE,BOSTON,MA,2116,42.35043,-71.084588
221500182,USPS COLLECTION BOX - APC,800 BOYLSTON ST,BOSTON,MA,2215,42.348602,-71.082724
211500103,USPS COLLECTION BOX - BLUE BOX,448 BEACON ST,BOSTON,MA,2115,42.351476,-71.0872277
211500102,USPS COLLECTION BOX - BLUE BOX,474 BEACON ST,BOSTON,MA,2115,42.351246,-71.0881704
211400046,USPS COLLECTION BOX - BLUE BOX,243 CHARLES ST,BOSTON,MA,2114,42.362748,-71.070138
211400012,USPS COLLECTION BOX - BLUE BOX,0 SCIENCE PK,BOSTON,MA,2114,42.36725743,-71.06966285
211400047,USPS COLLECTION BOX - BLUE BOX,90 BLOSSOM ST,BOSTON,MA,2114,42.36414508,-71.06905352
212200019,USPS COLLECTION BOX - BLUE BOX,251 BOWDOIN ST,BOSTON,MA,2122,42.306201,-71.0667675
212200020,USPS COLLECTION BOX - BLUE BOX,475 GENEVA AVE,BOSTON,MA,2122,42.29946805,-71.06495501
212200100,USPS COLLECTION BOX - BLUE BOX,42 CHARLES ST,BOSTON,MA,2122,42.30005851,-71.06357721
212200028,USPS COLLECTION BOX - BLUE BOX,218 ADAMS ST,BOSTON,MA,2122,42.3014293,-71.05970955
212200015,USPS COLLECTION BOX - BLUE BOX,1522 DORCHESTER AVE,BOSTON,MA,2122,42.29867809,-71.06058683
212200004,USPS COLLECTION BOX - BLUE BOX,1586 DORCHESTER AVE,BOSTON,MA,2122,42.296338,-71.0612224
212200096,USPS COLLECTION BOX - BLUE BOX,18 CLAYTON ST,BOSTON,MA,2122,42.30391848,-71.05614938
212200003,USPS COLLECTION BOX - BLUE BOX,282 CENTRE ST,BOSTON,MA,2122,42.293677,-71.0618899
212200002,USPS COLLECTION BOX - BLUE BOX,349 ADAMS ST,BOSTON,MA,2122,42.29748,-71.0567794
212200029,USPS COLLECTION BOX - BLUE BOX,447 ADAMS ST,BOSTON,MA,2122,42.29405065,-71.05688134
212200012,USPS COLLECTION BOX - BLUE BOX,317 FREEPORT ST,BOSTON,MA,2122,42.30171,-71.051292
212200110,USPS COLLECTION BOX - BLUE BOX,70 VICTORY RD,BOSTON,MA,2122,42.29620647,-71.05267797
212200016,USPS COLLECTION BOX - BLUE BOX,108 NEPONSET AVE,BOSTON,MA,2122,42.2946797,-71.05267426
212200013,USPS COLLECTION BOX - BLUE BOX,719 WILLIAM T MORRISSEY BLVD,BOSTON,MA,2122,42.297309,-71.0498025
212200030,USPS COLLECTION BOX - BLUE BOX,108 TRAIN ST,BOSTON,MA,2122,42.292179,-71.05365
212200005,USPS COLLECTION BOX - BLUE BOX,172 NEPONSET AVE,BOSTON,MA,2122,42.292958,-71.050699
212200023,USPS COLLECTION BOX - BLUE BOX,735 MORRISSEY BLVD,BOSTON,MA,2122,42.29590132,-71.04837716
212200006,USPS COLLECTION BOX - BLUE BOX,627 ADAMS ST,BOSTON,MA,2122,42.28839037,-71.0554661
212200010,USPS COLLECTION BOX - BLUE BOX,818 MORRISSEY BLVD,BOSTON,MA,2122,42.29409034,-71.04706411
212200007,USPS COLLECTION BOX - BLUE BOX,707 ADAMS ST,BOSTON,MA,2122,42.28508275,-71.05521322
212200008,USPS COLLECTION BOX - BLUE BOX,266 NEPONSET AVE,BOSTON,MA,2122,42.28982056,-71.04819201
212200021,USPS COLLECTION BOX - BLUE BOX,320 NEPONSET AVE,BOSTON,MA,2122,42.288714,-71.0469315
221500032,USPS COLLECTION BOX - BLUE BOX,860 COMMONWEALTH AVE,BOSTON,MA,2215,42.350763,-71.1140705
221500035,USPS COLLECTION BOX - BLUE BOX,900 COMMONWEALTH AVE,BOSTON,MA,2215,42.351016,-71.1161333
221500034,USPS COLLECTION BOX - BLUE BOX,940 COMMONWEALTH AVE,BOSTON,MA,2215,42.351279,-71.1184389
221500022,USPS COLLECTION BOX - BLUE BOX,1001 COMMONWEALTH AVE,BOSTON,MA,2215,42.351895,-71.1210831
221500079,USPS COLLECTION BOX - BLUE BOX,275 BABCOCK ST,BOSTON,MA,2215,42.35296,-71.1210051
221500024,USPS COLLECTION BOX - BLUE BOX,1016 COMMONWEALTH AVE,BOSTON,MA,2215,42.35168462,-71.12146217
221500031,USPS COLLECTION BOX - BLUE BOX,1041 COMMONWEALTH AVE,BOSTON,MA,2215,42.352065,-71.1225318
221500051,USPS COLLECTION BOX - BLUE BOX,1066 COMMONWEALTH AVE,BOSTON,MA,2215,42.3519,-71.1233646
212800043,USPS COLLECTION BOX - BLUE BOX,500 TERMINAL E,BOSTON,MA,2128,42.396855,-71.00084
212800057,USPS COLLECTION BOX - BLUE BOX,440 MCCLELLAN HGWY,BOSTON,MA,2128,42.393231,-71.0127682
212800049,USPS COLLECTION BOX - BLUE BOX,440 MCCLELLAN HGWY,BOSTON,MA,2128,42.393226,-71.0127678
212800020,USPS COLLECTION BOX - BLUE BOX,111 ORIENT AVE,BOSTON,MA,2128,42.390604,-71.0062805
212800030,USPS COLLECTION BOX - BLUE BOX,14 LEYDEN ST,BOSTON,MA,2128,42.390804,-71.0123176
212800021,USPS COLLECTION BOX - BLUE BOX,1229 BENNINGTON ST,BOSTON,MA,2128,42.389841,-70.9970911
212800022,USPS COLLECTION BOX - BLUE BOX,42 BREED ST,BOSTON,MA,2128,42.388398,-71.0065003
212800027,USPS COLLECTION BOX - BLUE BOX,3 WALLEY ST,BOSTON,MA,2128,42.389153,-70.9994531
212800029,USPS COLLECTION BOX - BLUE BOX,1035 SARATOGA ST,BOSTON,MA,2128,42.386046,-71.0051589
212800018,USPS COLLECTION BOX - BLUE BOX,88 BRANDYWINE DR,BOSTON,MA,2128,42.386443,-71.0133694
212800028,USPS COLLECTION BOX - BLUE BOX,856 BENNINGTON ST,BOSTON,MA,2128,42.38593,-71.0092856
212800023,USPS COLLECTION BOX - BLUE BOX,1094 SARATOGA ST,BOSTON,MA,2128,42.385281,-71.0028099
212800019,USPS COLLECTION BOX - BLUE BOX,622 BENNINGTON ST,BOSTON,MA,2128,42.383443,-71.0164421
212800024,USPS COLLECTION BOX - BLUE BOX,515 BENNINGTON ST,BOSTON,MA,2128,42.381846,-71.0202295
212800025,USPS COLLECTION BOX - BLUE BOX,464 BREMEN ST,BOSTON,MA,2128,42.38013,-71.0259108
212800014,USPS COLLECTION BOX - BLUE BOX,257 LEXINGTON ST,BOSTON,MA,2128,42.380316,-71.030571
212800026,USPS COLLECTION BOX - BLUE BOX,315 BENNINGTON ST,BOSTON,MA,2128,42.379064,-71.0276549
212800006,USPS COLLECTION BOX - BLUE BOX,84 CONDOR ST,BOSTON,MA,2128,42.382625,-71.0371057
212800013,USPS COLLECTION BOX - BLUE BOX,470 MERIDIAN ST,BOSTON,MA,2128,42.382681,-71.0394222
212800031,USPS COLLECTION BOX - BLUE BOX,108 TRENTON ST,BOSTON,MA,2128,42.379358,-71.0353211
212800012,USPS COLLECTION BOX - BLUE BOX,401 BORDER ST,BOSTON,MA,2128,42.380966,-71.0402803
212800033,USPS COLLECTION BOX - BLUE BOX,81 LEXINGTON ST,BOSTON,MA,2128,42.377874,-71.0369559
212800002,USPS COLLECTION BOX - BLUE BOX,30 S BREMEN ST,BOSTON,MA,2128,42.367881,-71.0395284
212800008,USPS COLLECTION BOX - BLUE BOX,264 SUMNER ST,BOSTON,MA,2128,42.368013,-71.0378404
212800058,USPS COLLECTION BOX - BLUE BOX,256 MARGINAL ST,BOSTON,MA,2128,42.36439,-71.0337121
212800009,USPS COLLECTION BOX - BLUE BOX,328 SUMNER ST,BOSTON,MA,2128,42.367276,-71.0360266
212200026,USPS COLLECTION BOX - BLUE BOX,757 GALLIVAN BLVD,BOSTON,MA,2122,42.283908,-71.044803
212200011,USPS COLLECTION BOX - BLUE BOX,102 WALNUT ST,BOSTON,MA,2122,42.288273,-71.0402895
212200009,USPS COLLECTION BOX - BLUE BOX,398 NEPONSET AVE,BOSTON,MA,2122,42.28677,-71.0440245
221000013,USPS COLLECTION BOX - BLUE BOX,23 DRYDOCK AVE,BOSTON,MA,2210,42.344604,-71.0315284
212800011,USPS COLLECTION BOX - BLUE BOX,357 MERIDIAN ST,BOSTON,MA,2128,42.378703,-71.0391373
212800095,USPS COLLECTION BOX - BLUE BOX,235 MERIDIAN ST,BOSTON,MA,2128,42.375816,-71.03909628
212800094,USPS COLLECTION BOX - BLUE BOX,210 BORDER ST,BOSTON,MA,2128,42.37532442,-71.03983794
212800051,USPS COLLECTION BOX - BLUE BOX,200 TERMINAL B,BOSTON,MA,2128,42.381944,-71.057082
212800015,USPS COLLECTION BOX - BLUE BOX,113 CHELSEA ST,BOSTON,MA,2128,42.372775,-71.0353686
212800062,USPS COLLECTION BOX - BLUE BOX,50 MERIDAN ST,BOSTON,MA,2128,42.371093,-71.0392115
212800075,USPS COLLECTION BOX - BLUE BOX,50 MERIDAN ST,BOSTON,MA,2128,42.37109,-71.0392096
212800034,USPS COLLECTION BOX - BLUE BOX,50 MAVERICK SQ,BOSTON,MA,2128,42.370129,-71.0387599
212800016,USPS COLLECTION BOX - BLUE BOX,149 COTTAGE ST,BOSTON,MA,2128,42.369508,-71.0334263
212800017,USPS COLLECTION BOX - BLUE BOX,241 MAVERICK ST,BOSTON,MA,2128,42.368408,-71.0349064
212800010,USPS COLLECTION BOX - BLUE BOX,3 MCCORMACK SQ,BOSTON,MA,2128,42.364848,-71.0307984
221500021,USPS COLLECTION BOX - BLUE BOX,1101 COMMONWEALTH AVE,BOSTON,MA,2215,42.352007,-71.1252841
212800056,USPS COLLECTION BOX - EXPRESS,1 HARBORSIDE DR,BOSTON,MA,2128,42.362528,-71.0253577
212800074,USPS COLLECTION BOX - BLUE BOX,1 HARBORSIDE DR,BOSTON,MA,2128,42.362515,-71.0253524
221000086,USPS COLLECTION BOX - BLUE BOX,88 BLACK FALCON AVE,BOSTON,MA,2210,42.34432347,-71.02252945
